start=new Date('2023-04-28T00:00:00.000Z').valueOf();
sats=[{"MEAN_MOTION_DDOT":"0.0000000000000","PERIAPSIS":"546.177","RCS_SIZE":"LARGE","GP_ID":"230834522","DECAY_DATE":null,"RA_OF_ASC_NODE":"147.4106","SEMIMAJOR_AXIS":"6925.373","TIME_SYSTEM":"UTC","INCLINATION":"53.0530","SITE":"AFETR","CLASSIFICATION_TYPE":"U","LAUNCH_DATE":"2020-08-07","MEAN_ANOMALY":"296.4880","REV_AT_EPOCH":"15106","OBJECT_TYPE":"PAYLOAD","CENTER_NAME":"EARTH","MEAN_MOTION":"15.06391965","APOAPSIS":"548.299","PERIOD":"95.593","EPOCH":"2023-04-27T13:11:51.947520","ARG_OF_PERICENTER":"63.6266","OBJECT_ID":"2020-055C","REF_FRAME":"TEME","TLE_LINE2":"2 46029  53.0530 147.4106 0001532  63.6266 296.4880 15.06391965151067","TLE_LINE1":"1 46029U 20055C   23117.54990680  .00011697  00000-0  80302-3 0  9998","OBJECT_NAME":"STARLINK-1526","COUNTRY_CODE":"US","FILE":"3894751","MEAN_MOTION_DOT":"0.00011697","MEAN_ELEMENT_THEORY":"SGP4","NORAD_CAT_ID":"46029","ECCENTRICITY":"0.00015320","ELEMENT_SET_NO":"999","BSTAR":"0.00080302000000","EPHEMERIS_TYPE":"0"},{"MEAN_ELEMENT_THEORY":"SGP4","NORAD_CAT_ID":"46030","ECCENTRICITY":"0.00012160","BSTAR":"0.00075124000000","ELEMENT_SET_NO":"999","EPHEMERIS_TYPE":"0","OBJECT_NAME":"STARLINK-1534","COUNTRY_CODE":"US","FILE":"3894957","MEAN_MOTION_DOT":"0.00010928","OBJECT_ID":"2020-055D","REF_FRAME":"TEME","TLE_LINE2":"2 46030  53.0522 147.3268 0001216  92.4149 267.6979 15.06406440150554","TLE_LINE1":"1 46030U 20055D   23117.56831169  .00010928  00000-0  75124-3 0  9990","CENTER_NAME":"EARTH","MEAN_MOTION":"15.06406440","APOAPSIS":"548.036","PERIOD":"95.592","EPOCH":"2023-04-27T13:38:22.130016","ARG_OF_PERICENTER":"92.4149","LAUNCH_DATE":"2020-08-07","MEAN_ANOMALY":"267.6979","REV_AT_EPOCH":"15055","OBJECT_TYPE":"PAYLOAD","INCLINATION":"53.0522","TIME_SYSTEM":"UTC","SITE":"AFETR","CLASSIFICATION_TYPE":"U","RA_OF_ASC_NODE":"147.3268","SEMIMAJOR_AXIS":"6925.329","MEAN_MOTION_DDOT":"0.0000000000000","PERIAPSIS":"546.352","RCS_SIZE":"LARGE","GP_ID":"230845855","DECAY_DATE":null},{"OBJECT_ID":"2020-055E","TLE_LINE1":"1 46031U 20055E   23117.43837284  .00012595  00000-0  86337-3 0  9991","TLE_LINE2":"2 46031  53.0526 147.8998 0001472  72.7286 287.3863 15.06380531151038","REF_FRAME":"TEME","MEAN_MOTION":"15.06380531","CENTER_NAME":"EARTH","PERIOD":"95.593","ARG_OF_PERICENTER":"72.7286","EPOCH":"2023-04-27T10:31:15.413376","APOAPSIS":"548.293","MEAN_ELEMENT_THEORY":"SGP4","EPHEMERIS_TYPE":"0","ELEMENT_SET_NO":"999","BSTAR":"0.00086337000000","NORAD_CAT_ID":"46031","ECCENTRICITY":"0.00014720","OBJECT_NAME":"STARLINK-1544","MEAN_MOTION_DOT":"0.00012595","FILE":"3894751","COUNTRY_CODE":"US","RA_OF_ASC_NODE":"147.8998","SEMIMAJOR_AXIS":"6925.408","RCS_SIZE":"LARGE","PERIAPSIS":"546.254","MEAN_MOTION_DDOT":"0.0000000000000","DECAY_DATE":null,"GP_ID":"230833025","LAUNCH_DATE":"2020-08-07","OBJECT_TYPE":"PAYLOAD","REV_AT_EPOCH":"15103","MEAN_ANOMALY":"287.3863","TIME_SYSTEM":"UTC","INCLINATION":"53.0526","CLASSIFICATION_TYPE":"U","SITE":"AFETR"},{"EPHEMERIS_TYPE":"0","NORAD_CAT_ID":"46032","ECCENTRICITY":"0.00013990","ELEMENT_SET_NO":"999","BSTAR":"0.00100630000000","MEAN_ELEMENT_THEORY":"SGP4","FILE":"3894751","MEAN_MOTION_DOT":"0.00014742","COUNTRY_CODE":"US","OBJECT_NAME":"STARLINK-1555","TLE_LINE1":"1 46032U 20055F   23117.40244298  .00014742  00000-0  10063-2 0  9994","REF_FRAME":"TEME","TLE_LINE2":"2 46032  53.0521 148.0719 0001399  82.6141 277.5007 15.06406291151040","OBJECT_ID":"2020-055F","ARG_OF_PERICENTER":"82.6141","PERIOD":"95.592","EPOCH":"2023-04-27T09:39:31.073472","APOAPSIS":"548.163","MEAN_MOTION":"15.06406291","CENTER_NAME":"EARTH","OBJECT_TYPE":"PAYLOAD","REV_AT_EPOCH":"15104","MEAN_ANOMALY":"277.5007","LAUNCH_DATE":"2020-08-07","SITE":"AFETR","CLASSIFICATION_TYPE":"U","TIME_SYSTEM":"UTC","INCLINATION":"53.0521","SEMIMAJOR_AXIS":"6925.329","RA_OF_ASC_NODE":"148.0719","GP_ID":"230834274","DECAY_DATE":null,"PERIAPSIS":"546.225","RCS_SIZE":"LARGE","MEAN_MOTION_DDOT":"0.0000000000000"},{"SEMIMAJOR_AXIS":"6925.367","RA_OF_ASC_NODE":"147.5590","GP_ID":"230842880","DECAY_DATE":null,"PERIAPSIS":"546.188","RCS_SIZE":"LARGE","MEAN_MOTION_DDOT":"0.0000000000000","OBJECT_TYPE":"PAYLOAD","REV_AT_EPOCH":"15054","MEAN_ANOMALY":"276.6961","LAUNCH_DATE":"2020-08-07","SITE":"AFETR","CLASSIFICATION_TYPE":"U","TIME_SYSTEM":"UTC","INCLINATION":"53.0539","TLE_LINE1":"1 46033U 20055G   23117.51671672  .00009042  00000-0  62523-3 0  9993","REF_FRAME":"TEME","TLE_LINE2":"2 46033  53.0539 147.5590 0001508  83.4199 276.6961 15.06393921150543","OBJECT_ID":"2020-055G","PERIOD":"95.593","EPOCH":"2023-04-27T12:24:04.324608","ARG_OF_PERICENTER":"83.4199","APOAPSIS":"548.277","MEAN_MOTION":"15.06393921","CENTER_NAME":"EARTH","EPHEMERIS_TYPE":"0","NORAD_CAT_ID":"46033","ECCENTRICITY":"0.00015080","ELEMENT_SET_NO":"999","BSTAR":"0.00062523000000","MEAN_ELEMENT_THEORY":"SGP4","FILE":"3894831","MEAN_MOTION_DOT":"0.00009042","COUNTRY_CODE":"US","OBJECT_NAME":"STARLINK-1556"},{"RA_OF_ASC_NODE":"147.8406","SEMIMAJOR_AXIS":"6925.366","MEAN_MOTION_DDOT":"0.0000000000000","RCS_SIZE":"LARGE","PERIAPSIS":"546.443","DECAY_DATE":null,"GP_ID":"230832775","LAUNCH_DATE":"2020-08-07","REV_AT_EPOCH":"15102","MEAN_ANOMALY":"262.1396","OBJECT_TYPE":"PAYLOAD","TIME_SYSTEM":"UTC","INCLINATION":"53.0524","CLASSIFICATION_TYPE":"U","SITE":"AFETR","OBJECT_ID":"2020-055H","TLE_LINE2":"2 46034  53.0524 147.8406 0001138  97.9722 262.1396 15.06394248151027","REF_FRAME":"TEME","TLE_LINE1":"1 46034U 20055H   23117.45404360  .00000815  00000-0  73577-4 0  9996","CENTER_NAME":"EARTH","MEAN_MOTION":"15.06394248","APOAPSIS":"548.019","EPOCH":"2023-04-27T10:53:49.367040","PERIOD":"95.593","ARG_OF_PERICENTER":"97.9722","MEAN_ELEMENT_THEORY":"SGP4","BSTAR":"0.00007357700000","ELEMENT_SET_NO":"999","ECCENTRICITY":"0.00011380","NORAD_CAT_ID":"46034","EPHEMERIS_TYPE":"0","OBJECT_NAME":"STARLINK-1557","COUNTRY_CODE":"US","MEAN_MOTION_DOT":"0.00000815","FILE":"3894751"},{"LAUNCH_DATE":"2020-08-07","REV_AT_EPOCH":"15104","MEAN_ANOMALY":"251.5386","OBJECT_TYPE":"PAYLOAD","INCLINATION":"53.0527","TIME_SYSTEM":"UTC","SITE":"AFETR","CLASSIFICATION_TYPE":"U","RA_OF_ASC_NODE":"148.1062","SEMIMAJOR_AXIS":"6925.350","MEAN_MOTION_DDOT":"0.0000000000000","PERIAPSIS":"546.329","RCS_SIZE":"LARGE","GP_ID":"230833525","DECAY_DATE":null,"MEAN_ELEMENT_THEORY":"SGP4","ECCENTRICITY":"0.00012790","NORAD_CAT_ID":"46035","ELEMENT_SET_NO":"999","BSTAR":"0.00132760000000","EPHEMERIS_TYPE":"0","OBJECT_NAME":"STARLINK-1558","COUNTRY_CODE":"US","FILE":"3894751","MEAN_MOTION_DOT":"0.00019548","OBJECT_ID":"2020-055J","REF_FRAME":"TEME","TLE_LINE2":"2 46035  53.0527 148.1062 0001279 108.5742 251.5386 15.06399571151047","TLE_LINE1":"1 46035U 20055J   23117.39508414  .00019548  00000-0  13276-2 0  9996","CENTER_NAME":"EARTH","MEAN_MOTION":"15.06399571","APOAPSIS":"548.101","ARG_OF_PERICENTER":"108.5742","PERIOD":"95.592","EPOCH":"2023-04-27T09:28:55.269696"},{"SEMIMAJOR_AXIS":"6925.402","RA_OF_ASC_NODE":"147.2729","GP_ID":"230813118","DECAY_DATE":null,"PERIAPSIS":"546.079","RCS_SIZE":"LARGE","MEAN_MOTION_DDOT":"0.0000000000000","OBJECT_TYPE":"PAYLOAD","MEAN_ANOMALY":"280.4750","REV_AT_EPOCH":"15055","LAUNCH_DATE":"2020-08-07","SITE":"AFETR","CLASSIFICATION_TYPE":"U","INCLINATION":"53.0532","TIME_SYSTEM":"UTC","TLE_LINE1":"1 46036U 20055K   23117.57935883  .00003638  00000-0  26313-3 0  9991","REF_FRAME":"TEME","TLE_LINE2":"2 46036  53.0532 147.2729 0001715  79.6432 280.4750 15.06382575150550","OBJECT_ID":"2020-055K","PERIOD":"95.593","ARG_OF_PERICENTER":"79.6432","EPOCH":"2023-04-27T13:54:16.602912","APOAPSIS":"548.455","MEAN_MOTION":"15.06382575","CENTER_NAME":"EARTH","EPHEMERIS_TYPE":"0","NORAD_CAT_ID":"46036","ECCENTRICITY":"0.00017150","BSTAR":"0.00026313000000","ELEMENT_SET_NO":"999","MEAN_ELEMENT_THEORY":"SGP4","FILE":"3894714","MEAN_MOTION_DOT":"0.00003638","COUNTRY_CODE":"US","OBJECT_NAME":"STARLINK-1560"},{"OBJECT_NAME":"STARLINK-1565","FILE":"3894722","MEAN_MOTION_DOT":"0.00020685","COUNTRY_CODE":"US","MEAN_ELEMENT_THEORY":"SGP4","EPHEMERIS_TYPE":"0","ECCENTRICITY":"0.00013470","NORAD_CAT_ID":"46037","BSTAR":"0.00140290000000","ELEMENT_SET_NO":"999","MEAN_MOTION":"15.06415358","CENTER_NAME":"EARTH","PERIOD":"95.591","EPOCH":"2023-04-27T13:48:59.948640","ARG_OF_PERICENTER":"90.3765","APOAPSIS":"548.099","OBJECT_ID":"2020-055L","TLE_LINE1":"1 46037U 20055L   23117.57569385  .00020685  00000-0  14029-2 0  9993","REF_FRAME":"TEME","TLE_LINE2":"2 46037  53.0521 147.2954 0001347  90.3765 269.7378 15.06415358150551","INCLINATION":"53.0521","TIME_SYSTEM":"UTC","SITE":"AFETR","CLASSIFICATION_TYPE":"U","LAUNCH_DATE":"2020-08-07","OBJECT_TYPE":"PAYLOAD","REV_AT_EPOCH":"15055","MEAN_ANOMALY":"269.7378","PERIAPSIS":"546.234","RCS_SIZE":"LARGE","MEAN_MOTION_DDOT":"0.0000000000000","GP_ID":"230813270","DECAY_DATE":null,"RA_OF_ASC_NODE":"147.2954","SEMIMAJOR_AXIS":"6925.301"},{"SITE":"AFETR","CLASSIFICATION_TYPE":"U","INCLINATION":"53.0529","TIME_SYSTEM":"UTC","MEAN_ANOMALY":"289.4858","REV_AT_EPOCH":"15103","OBJECT_TYPE":"PAYLOAD","LAUNCH_DATE":"2020-08-07","GP_ID":"230833275","DECAY_DATE":null,"MEAN_MOTION_DDOT":"0.0000000000000","PERIAPSIS":"546.210","RCS_SIZE":"LARGE","SEMIMAJOR_AXIS":"6925.405","RA_OF_ASC_NODE":"148.1232","COUNTRY_CODE":"US","FILE":"3894751","MEAN_MOTION_DOT":"0.00010233","OBJECT_NAME":"STARLINK-1567","ECCENTRICITY":"0.00015300","NORAD_CAT_ID":"46038","ELEMENT_SET_NO":"999","BSTAR":"0.00070519000000","EPHEMERIS_TYPE":"0","MEAN_ELEMENT_THEORY":"SGP4","APOAPSIS":"548.329","PERIOD":"95.593","EPOCH":"2023-04-27T09:23:36.221280","ARG_OF_PERICENTER":"70.6296","CENTER_NAME":"EARTH","MEAN_MOTION":"15.06381613","REF_FRAME":"TEME","TLE_LINE2":"2 46038  53.0529 148.1232 0001530  70.6296 289.4858 15.06381613151035","TLE_LINE1":"1 46038U 20055M   23117.39139145  .00010233  00000-0  70519-3 0  9996","OBJECT_ID":"2020-055M"}];
